{
"type": "FeatureCollection",
"name": "groves",
"crs": { "type": "name", "properties": { "name": "urn:ogc:def:crs:OGC:1.3:CRS84" } },
"features": [
{ "type": "Feature", "properties": { "grove_code": "MORAN", "grove_name": "Moran", "area_ha": 1.933, "detected_tree_count": 174, "canopy_cover_pct": 19.9, "ndvi_mean": 0.3469301164150238 }, "geometry": { "type": "Polygon", "coordinates": [ [ [ 35.392561627667519, 32.926287272674379 ], [ 35.392813425776978, 32.926568208599043 ], [ 35.39295833254954, 32.926985713374258 ], [ 35.392926177498119, 32.92770126727649 ], [ 35.391417861696517, 32.927946633381239 ], [ 35.391379697199042, 32.92796158510366 ], [ 35.391352091193163, 32.927974946561982 ], [ 35.391242146708137, 32.927981162707383 ], [ 35.391186270772067, 32.92796192692051 ], [ 35.391178315087792, 32.927913113260267 ], [ 35.391160039147337, 32.927524900305869 ], [ 35.391336561897027, 32.927474380915001 ], [ 35.391465481917393, 32.927434537501178 ], [ 35.391572358306689, 32.927666323174741 ], [ 35.39167909810017, 32.927433987398928 ], [ 35.391817284822068, 32.927478741555987 ], [ 35.392039555708337, 32.927388257518317 ], [ 35.392042270765117, 32.927058913770807 ], [ 35.392200086557253, 32.926959075382278 ], [ 35.392391065242947, 32.926966980394774 ], [ 35.392667481300897, 32.926865569278917 ], [ 35.392642266545963, 32.926712659849748 ], [ 35.392205814414602, 32.926638322555931 ], [ 35.39209417777009, 32.926434078692282 ], [ 35.391136170195601, 32.926395067123252 ], [ 35.391150465206152, 32.926056581516171 ], [ 35.391774686580632, 32.926047266751063 ], [ 35.392117769117647, 32.925938287625712 ], [ 35.392561627667519, 32.926287272674379 ] ] ] } },
{ "type": "Feature", "properties": { "grove_code": "MENEZLEH", "grove_name": "Menezleh", "area_ha": 0.368, "detected_tree_count": 39, "canopy_cover_pct": 24.6, "ndvi_mean": 0.34663081169128418 }, "geometry": { "type": "Polygon", "coordinates": [ [ [ 35.367385830922771, 32.933352449918281 ], [ 35.367470197414669, 32.933440964482379 ], [ 35.367438971215478, 32.933634923539003 ], [ 35.36741249978737, 32.933810351456643 ], [ 35.367608557330087, 32.933910946998537 ], [ 35.36729436673393, 32.934432447891318 ], [ 35.366928291791147, 32.933627046932813 ], [ 35.367385830922771, 32.933352449918281 ] ] ] } },
{ "type": "Feature", "properties": { "grove_code": "ALMAFAREQ", "grove_name": "Almafareq", "area_ha": 1.183, "detected_tree_count": 150, "canopy_cover_pct": 28.9, "ndvi_mean": 0.31444966793060303 }, "geometry": { "type": "Polygon", "coordinates": [ [ [ 35.375449324005743, 32.929349202047902 ], [ 35.376048571971758, 32.929162694220707 ], [ 35.376053026441241, 32.929400617396148 ], [ 35.376088254971627, 32.929564647301113 ], [ 35.376406790213437, 32.92956263118316 ], [ 35.376551392220982, 32.929663898631127 ], [ 35.376863255413653, 32.929539300808791 ], [ 35.377039697416123, 32.930173682305274 ], [ 35.375584045644878, 32.930309457690122 ], [ 35.375449324005743, 32.929349202047902 ] ] ] } },
{ "type": "Feature", "properties": { "grove_code": "EIN_ATEYYE", "grove_name": "Ein Ateyye", "area_ha": 1.986, "detected_tree_count": 181, "canopy_cover_pct": 32.9, "ndvi_mean": 0.33951678872108459 }, "geometry": { "type": "Polygon", "coordinates": [ [ [ 35.4034261646364, 32.912513127114089 ], [ 35.402220736534318, 32.913316576222307 ], [ 35.401520960003943, 32.9123731991928 ], [ 35.40229137110645, 32.911631289761637 ], [ 35.402860583528188, 32.911538605636913 ], [ 35.4034261646364, 32.912513127114089 ] ] ] } },
{ "type": "Feature", "properties": { "grove_code": "THOELIEB", "grove_name": "Thoelieb", "area_ha": 2.31, "detected_tree_count": 264, "canopy_cover_pct": 17.0, "ndvi_mean": 0.33112978935241699 }, "geometry": { "type": "Polygon", "coordinates": [ [ [ 35.400608104637961, 32.920367816735983 ], [ 35.399647878214012, 32.921199516173189 ], [ 35.399272693620517, 32.920897186858568 ], [ 35.400143093896347, 32.920178640463867 ], [ 35.400572214303061, 32.919331506549639 ], [ 35.402476651365951, 32.919552762742804 ], [ 35.401404086768672, 32.920329615751648 ], [ 35.401722459604883, 32.920607750355501 ], [ 35.401574139747751, 32.920679850325939 ], [ 35.401426626732203, 32.920751583801888 ], [ 35.401221027469987, 32.920494327037957 ], [ 35.400608104637961, 32.920367816735983 ] ] ] } },
{ "type": "Feature", "properties": { "grove_code": "SERET_AL_AJOUL_A", "grove_name": "Seret Al Ajoul & AbuMrad", "area_ha": 3.254, "detected_tree_count": 401, "canopy_cover_pct": 18.4, "ndvi_mean": 0.32040411233901978 }, "geometry": { "type": "Polygon", "coordinates": [ [ [ 35.402874402794417, 32.919248770954042 ], [ 35.403118996886313, 32.9189697931727 ], [ 35.404265209353362, 32.919306407783381 ], [ 35.405671551004353, 32.918676766083088 ], [ 35.405355862580613, 32.91826419103689 ], [ 35.405904971841537, 32.917972551168297 ], [ 35.406284941042379, 32.918711798704663 ], [ 35.406820579238833, 32.918564128161989 ], [ 35.407324335516734, 32.918419498206532 ], [ 35.40734348147992, 32.918623426288271 ], [ 35.407339085414449, 32.918896229266608 ], [ 35.406533797016728, 32.919104820080001 ], [ 35.404688416486863, 32.919847589559929 ], [ 35.404590348008981, 32.91950378911416 ], [ 35.404223324156291, 32.91953290387886 ], [ 35.404206467550438, 32.919991368592697 ], [ 35.40397126902041, 32.920084881183087 ], [ 35.403829738061567, 32.91990324881688 ], [ 35.403018594841328, 32.920027735366418 ], [ 35.40321965856883, 32.919387358852568 ], [ 35.402874402794417, 32.919248770954042 ] ] ] } },
{ "type": "Feature", "properties": { "grove_code": "AT3ET_AL_NAKHLE", "grove_name": "At3et Al Nakhle", "area_ha": 0.417, "detected_tree_count": 47, "canopy_cover_pct": 25.8, "ndvi_mean": 0.31997114419937134 }, "geometry": { "type": "Polygon", "coordinates": [ [ [ 35.394361779186823, 32.927290080077363 ], [ 35.394357833220333, 32.927615999547363 ], [ 35.393458298940509, 32.927607407397787 ], [ 35.393345968889129, 32.927239482527597 ], [ 35.393554656140509, 32.927089560907852 ], [ 35.393801731442792, 32.926986668106743 ], [ 35.393863613242473, 32.927224494340322 ], [ 35.393990597815211, 32.927245774770832 ], [ 35.393982111854783, 32.927333997673649 ], [ 35.394256720333388, 32.927311105092038 ], [ 35.394361779186823, 32.927290080077363 ] ] ] } },
{ "type": "Feature", "properties": { "grove_code": "ROES_ALMAL", "grove_name": "Roes AlMal", "area_ha": 0.465, "detected_tree_count": 70, "canopy_cover_pct": 28.9, "ndvi_mean": 0.34133988618850708 }, "geometry": { "type": "Polygon", "coordinates": [ [ [ 35.38815196876677, 32.920828685142602 ], [ 35.387901321361461, 32.920311923889372 ], [ 35.38844712464585, 32.92015783408425 ], [ 35.388620329675128, 32.92057557974826 ], [ 35.38885781835701, 32.920746177314442 ], [ 35.388604021743959, 32.92105198511846 ], [ 35.388604269894103, 32.921052810296047 ], [ 35.38815196876677, 32.920828685142602 ] ] ] } }
]
}
